1 44715U 19074C   22119.49035935  .00002704  00000-0  20028-3 0  9993
2 44715  53.0559  37.2534 0001571  78.5146 281.6019 15.06416482136362
1 44715U 19074C   22119.68940115 -.00008644  00000-0 -56219-3 0  9991
2 44715  53.0557  36.3602 0001308  84.9185 275.1954 15.06395011136391
1 44715U 19074C   22119.82209514 -.00004916  00000-0 -31142-3 0  9994
2 44715  53.0555  35.7643 0001269  84.1730 275.9404 15.06396106136249
1 44715U 19074C   22120.02113938  .00004075  00000-0  29231-3 0  9992
2 44715  53.0554  34.8717 0001425  70.2882 289.8260 15.06400093136445
1 44715U 19074C   22120.02113938  .00004075  00000-0  29231-3 0  9992
2 44715  53.0554  34.8717 0001425  70.2882 289.8260 15.06400093136276
1 44715U 19074C   22121.14904901  .00005121  00000-0  36263-3 0  9990
2 44715  53.0550  29.8083 0001285  69.7059 290.4067 15.06379365136613
1 44715U 19074C   22121.14904901  .00005121  00000-0  36263-3 0  9990
2 44715  53.0550  29.8083 0001285  69.7059 290.4067 15.06379365136444
1 44715U 19074C   22121.74617809  .00011271  00000-0  77459-3 0  9999
2 44715  53.0558  27.1280 0001273  63.7893 296.3227 15.06388903136530
1 44715U 19074C   22122.14425732  .00012208  00000-0  83694-3 0  9995
2 44715  53.0563  25.3409 0001374  73.4354 286.6786 15.06403298136763
1 44715U 19074C   22122.14425732  .00012208  00000-0  83694-3 0  9995
2 44715  53.0563  25.3409 0001374  73.4354 286.6786 15.06403298136594
1 44715U 19074C   22123.07311528  .00000977  00000-0  84491-4 0  9992
2 44715  53.0561  21.1704 0001415  77.2855 282.8292 15.06395471136906
1 44715U 19074C   22123.40484912  .00002397  00000-0  17978-3 0  9990
2 44715  53.0564  19.6819 0001415  79.9905 280.1243 15.06396620136783
1 44715U 19074C   22123.80292961  .00009964  00000-0  68685-3 0  9993
2 44715  53.0563  17.8951 0001422  79.3348 280.7801 15.06402497136845
1 44715U 19074C   22124.13466090  .00012851  00000-0  87970-3 0  9993
2 44715  53.0562  16.4058 0001420  79.6932 280.4217 15.06416002137067
1 44715U 19074C   22124.13466090  .00012851  00000-0  87970-3 0  9993
2 44715  53.0562  16.4058 0001420  79.6932 280.4217 15.06416002136897
1 44715U 19074C   22124.79812346  .00006548  00000-0  45789-3 0  9992
2 44715  53.0558  13.4270 0001408  79.2740 280.8408 15.06417126136999
1 44715U 19074C   22125.12985768  .00008068  00000-0  55963-3 0  9993
2 44715  53.0560  11.9382 0001374  77.4491 282.6652 15.06416393137216
1 44715U 19074C   22125.39524491  .00005588  00000-0  39363-3 0  9994
2 44715  53.0559  10.7471 0001411  80.6447 279.4702 15.06413042137082
1 44715U 19074C   22125.39524491  .00005588  00000-0  39363-3 0  9994
2 44715  53.0559  10.7471 0001411  80.6447 279.4702 15.06413042137251
1 44715U 19074C   22126.05871758 -.00000315  00000-0 -22800-5 0  9994
2 44715  53.0566   7.7685 0001434  81.1731 278.9420 15.06401027137351
1 44715U 19074C   22126.39044912  .00000133  00000-0  27816-4 0  9992
2 44715  53.0575   6.2799 0001389  82.4963 277.6184 15.06407427137231
1 44715U 19074C   22127.05392363  .00000636  00000-0  61624-4 0  9995
2 44715  53.0571   3.3009 0001420  83.3658 276.7493 15.06394950137505
1 44715U 19074C   22127.05392363  .00000636  00000-0  61624-4 0  9995
2 44715  53.0571   3.3009 0001420  83.3658 276.7493 15.06394950137336
1 44715U 19074C   22127.85008821  .00000236  00000-0  34714-4 0  9992
2 44715  53.0574 359.7249 0001423  87.3910 272.7242 15.06392748137455
1 44715U 19074C   22127.98278335  .00000438  00000-0  48321-4 0  9998
2 44715  53.0573 359.1296 0001384  84.6320 275.4827 15.06390402137646
1 44715U 19074C   22127.98278335  .00000438  00000-0  48321-4 0  9998
2 44715  53.0573 359.1296 0001384  84.6320 275.4827 15.06390402137477
1 44715U 19074C   22128.91163981  .00000980  00000-0  84698-4 0  9991
2 44715  53.0568 354.9585 0001335  82.4413 277.6728 15.06390623137615
1 44715U 19074C   22129.30971956  .00001224  00000-0  10108-3 0  9990
2 44715  53.0566 353.1714 0001325  81.3199 278.7940 15.06394310137846
1 44715U 19074C   22129.30971956  .00001224  00000-0  10108-3 0  9990
2 44715  53.0566 353.1714 0001325  81.3199 278.7940 15.06394310137677
1 44715U 19074C   22129.84048760  .00001948  00000-0  14963-3 0  9993
2 44715  53.0566 350.7898 0001287  83.9154 276.1982 15.06401557137927
1 44715U 19074C   22129.90683621  .00001785  00000-0  13870-3 0  9996
2 44715  53.0565 350.4926 0001313  77.2921 282.8215 15.06400296137767
1 44715U 19074C   22130.03953569  .00001141  00000-0  95496-4 0  9994
2 44715  53.0568 349.8991 0001402  84.0139 276.1010 15.06393701137952
1 44715U 19074C   22130.30492381  .00000685  00000-0  64853-4 0  9999
2 44715  53.0564 348.7075 0001377  81.0093 279.1052 15.06394007137821
1 44715U 19074C   22130.90204412  .00000592  00000-0  58620-4 0  9993
2 44715  53.0565 346.0240 0001364  65.1146 294.9984 15.06395830137919
1 44715U 19074C   22131.03474446 -.00000214  00000-0  45374-5 0  9999
2 44715  53.0567 345.4305 0001407  81.8560 278.2589 15.06388488138108
1 44715U 19074C   22131.30013123 -.00000055  00000-0  15219-4 0  9997
2 44715  53.0566 344.2392 0001405  82.3568 277.7581 15.06391031137970
1 44715U 19074C   22131.69820850 -.00000318  00000-0 -24338-5 0  9998
2 44715  53.0564 342.4523 0001393  88.8505 271.2643 15.06398307138200
1 44715U 19074C   22131.69820850 -.00000318  00000-0 -24338-5 0  9998
2 44715  53.0564 342.4523 0001393  88.8505 271.2643 15.06398307138031
1 44715U 19074C   22132.29532169  .00002298  00000-0  17308-3 0  9992
2 44715  53.0566 339.7721 0001510  85.7288 274.3873 15.06404750138294
1 44715U 19074C   22132.29532169  .00002298  00000-0  17308-3 0  9992
2 44715  53.0566 339.7721 0001510  85.7288 274.3873 15.06404750138126
1 44715U 19074C   22132.82608131 -.00007566  00000-0 -48899-3 0  9998
2 44715  53.0567 337.3893 0001797  80.7308 279.3885 15.06440418138204
1 44715U 19074C   22132.82608131 -.00007566  00000-0 -48899-3 0  9998
2 44715  53.0567 337.3893 0001797  80.7308 279.3885 15.06440418138372
1 44715U 19074C   22133.29052400  .00002676  00000-0  19849-3 0  9990
2 44715  53.0566 335.3045 0001587  87.0605 273.0566 15.06402564138440
1 44715U 19074C   22133.55591196  .00001994  00000-0  15275-3 0  9990
2 44715  53.0543 334.1117 0001768  90.1972 269.9219 15.06403096138311
1 44715U 19074C   22133.82130140  .00000663  00000-0  63419-4 0  9994
2 44715  53.0553 332.9217 0001919  87.1541 272.9667 15.06401808138359
1 44715U 19074C   22134.28572806  .00000955  00000-0  82982-4 0  9994
2 44715  53.0646 330.8374 0000940  91.5914 268.5182 15.06399814138591
1 44715U 19074C   22134.28572806  .00000955  00000-0  82982-4 0  9994
2 44715  53.0646 330.8374 0000940  91.5914 268.5182 15.06399814138423
1 44715U 19074C   22134.81651022 -.00000694  00000-0 -27674-4 0  9990
2 44715  53.0589 328.4545 0001563  90.8656 269.2512 15.06394622138673
1 44715U 19074C   22134.81651022 -.00000694  00000-0 -27674-4 0  9990
2 44715  53.0589 328.4545 0001563  90.8656 269.2512 15.06394622138505
1 44715U 19074C   22135.01554707 -.00000261  00000-0  13859-5 0  9995
2 44715  53.0575 327.5599 0001602  92.9726 267.1446 15.06398470138535
1 44715U 19074C   22135.81170540  .00001610  00000-0  12698-3 0  9998
2 44715  53.0567 323.9865 0001424  95.6468 264.4683 15.06398732138823
1 44715U 19074C   22135.81170540  .00001610  00000-0  12698-3 0  9998
2 44715  53.0567 323.9865 0001424  95.6468 264.4683 15.06398732138654
1 44715U 19074C   22136.20979048  .00001235  00000-0  10183-3 0  9992
2 44715  53.0566 322.1991 0001514  93.0610 267.0553 15.06394308138880
1 44715U 19074C   22136.54152716  .00001357  00000-0  11001-3 0  9999
2 44715  53.0565 320.7101 0001474  96.1688 263.9469 15.06392227138766
1 44715U 19074C   22136.93961270  .00000237  00000-0  34822-4 0  9998
2 44715  53.0564 318.9235 0001395  89.2462 270.8687 15.06390908138995
1 44715U 19074C   22136.80691624  .00000788  00000-0  71773-4 0  9994
2 44715  53.0565 319.5190 0001425  91.0003 269.1149 15.06391516138809
1 44715U 19074C   22137.20499918  .00000340  00000-0  41695-4 0  9995
2 44715  53.0565 317.7323 0001384  89.0249 271.0899 15.06392587138869
1 44715U 19074C   22138.00115527  .00001059  00000-0  89989-4 0  9991
2 44715  53.0565 314.1582 0001279  90.8346 269.2789 15.06401717139154
1 44715U 19074C   22137.86846814  .00000706  00000-0  66306-4 0  9990
2 44715  53.0564 314.7540 0001285  86.4006 273.7130 15.06392499138968
1 44715U 19074C   22138.20019497  .00001221  00000-0  10081-3 0  9999
2 44715  53.0563 313.2647 0001242  86.5564 273.5567 15.06403157139015
1 44715U 19074C   22138.86366257  .00001734  00000-0  13523-3 0  9993
2 44715  53.0551 310.2862 0001365  75.8754 284.2386 15.06405721139114
1 44715U 19074C   22139.46078804  .00001621  00000-0  12769-3 0  9994
2 44715  53.0535 307.6067 0001670  86.5553 273.5627 15.06399908139206
1 44715U 19074C   22139.72618804  .00006330  00000-0  44378-3 0  9996
2 44715  53.0541 306.4146 0001879  91.4425 268.6779 15.06376036139415
1 44715U 19074C   22140.45598969  .00000558  00000-0  56358-4 0  9995
2 44715  53.0541 303.1380 0001628  84.9164 275.2011 15.06402223139521
1 44715U 19074C   22140.45598969  .00000558  00000-0  56358-4 0  9995
2 44715  53.0541 303.1380 0001628  84.9164 275.2011 15.06402223139352
1 44715U 19074C   22140.72137967 -.00000088  00000-0  13012-4 0  9991
2 44715  53.0544 301.9477 0001689  81.5380 278.5800 15.06400651139397
1 44715U 19074C   22141.51754068  .00004049  00000-0  29066-3 0  9991
2 44715  53.0560 298.3723 0001481  82.5144 277.6014 15.06390293139686
1 44715U 19074C   22141.58388751  .00002842  00000-0  20963-3 0  9996
2 44715  53.0563 298.0740 0001376  84.1852 275.9294 15.06393013139529
1 44715U 19074C   22141.84927618  .00000238  00000-0  34840-4 0  9993
2 44715  53.0570 296.8831 0001278  79.3328 280.7805 15.06397205139562
1 44715U 19074C   22142.57909339  .00000828  00000-0  74457-4 0  9997
2 44715  53.0569 293.6066 0001261  77.9387 282.1743 15.06394756139673
1 44715U 19074C   22142.71178652  .00000081  00000-0  24339-4 0  9994
2 44715  53.0562 293.0109 0001338  81.6872 278.4269 15.06397297139869
